ONEWEB-0350             
1 49214U 21083AE  25017.85460352 -.00000007  00000+0 -53772-4 0  9998
2 49214  87.8893  62.6953 0002168  95.0095 265.1282 13.13469848163284
ONEWEB-0351             
1 49215U 21083AF  25018.49178494 -.00000100  00000+0 -27871-3 0  9997
2 49215  87.9248  16.8378 0002006 114.7120 245.4222 13.20772795170145
ONEWEB-0352             
1 49216U 21083AG  25018.36879702 -.00000265  00000+0 -76006-3 0  9990
2 49216  87.8895  62.6297 0002067 110.0902 250.0450 13.13468483164748
ONEWEB-0354             
1 49217U 21083AH  25018.06263670 -.00000013  00000+0 -65078-4 0  9998
2 49217  87.9249  16.9162 0002170  85.8866 274.2515 13.20774029170122
ONEWEB-0355             
1 49218U 21083AJ  25018.47513415  .00000135  00000+0  33375-3 0  9996
2 49218  87.8895  62.6075 0002016 100.3909 259.7447 13.13468752164636
ONEWEB-0357             
1 49219U 21083AK  25018.05949497 -.00000056  00000+0 -16952-3 0  9990
2 49219  87.9248  16.9281 0001878  93.8850 266.2498 13.20772402170114
ONEWEB-0332             
1 49279U 21090A   25018.43405365 -.00000137  00000+0 -40434-3 0  9999
2 49279  87.8986  32.0725 0001547  98.6698 261.4607 13.14501750159953
ONEWEB-0347             
1 49280U 21090B   25018.05002078 -.00000051  00000+0 -15783-3 0  9997
2 49280  87.9252  16.9342 0001348  91.2976 268.8311 13.20772144163047
